IRIDIUM 126             
1 42809U 17039G   24320.48855217  .00000734  00000+0  25509-3 0  9991
2 42809  86.3971 235.4317 0002462  96.2482 263.8994 14.34211480387006
IRIDIUM 124             
1 42810U 17039H   24320.55587331  .00000137  00000+0  34696-4 0  9995
2 42810  86.4527 172.2405 0001867  74.8048 285.3359 14.43281045391654
IRIDIUM 128             
1 42811U 17039J   24320.40951514  .00000782  00000+0  27213-3 0  9990
2 42811  86.3945 266.9833 0002441  79.2868 280.8603 14.34219809387029
IRIDIUM 121             
1 42812U 17039K   24320.50758272  .00000593  00000+0  20472-3 0  9998
2 42812  86.3993 235.4418 0002225  80.1182 280.0265 14.34215074386882
IRIDIUM 133             
1 42955U 17061A   24320.58077594  .00000688  00000+0  23870-3 0  9990
2 42955  86.3945 267.0151 0002246  84.0662 276.0789 14.34216224371845
IRIDIUM 100             
1 42956U 17061B   24320.57443315  .00000760  00000+0  26424-3 0  9997
2 42956  86.3946 266.9499 0002424  78.9990 281.1478 14.34218041371845
IRIDIUM 122             
1 42957U 17061C   24320.40318660  .00000729  00000+0  25307-3 0  9998
2 42957  86.3945 267.0203 0002597  82.4002 277.7488 14.34214482371820
IRIDIUM 129             
1 42958U 17061D   24320.56809129  .00000718  00000+0  24943-3 0  9994
2 42958  86.3945 267.0122 0002252  93.0353 267.1100 14.34217975371864
